{"type": "FeatureCollection", "features": [ {"type": "Feature", "properties": {"norad_id": 34972, "name": "COSMOS 2251 DEB", "group": "cosmos-2251-debris", "lat": -20.87340708008958, "lon": -105.56353724591648, "alt_km": 635.9700232220894, "timestamp": "2025-12-03T08:58:46.398643+00:00", "meta": {"OBJECT_NAME": "COSMOS 2251 DEB", "OBJECT_ID": "1993-036AFB", "EPOCH": "2025-12-02T16:20:52.687104", "MEAN_MOTION": 14.7257553, "ECCENTRICITY": 0.0034548, "INCLINATION": 73.9881, "RA_OF_ASC_NODE": 69.5022, "ARG_OF_PERICENTER": 229.6952, "MEAN_ANOMALY": 259.9357, "EPHEMERIS_TYPE": 0, "CLASSIFICATION_TYPE": "U", "NORAD_CAT_ID": 34972, "ELEMENT_SET_NO": 999, "REV_AT_EPOCH": 87502, "BSTAR": 0.0021421, "MEAN_MOTION_DOT": 0.0001375, "MEAN_MOTION_DDOT": 0}, "tle": {"line1": "1 34972U 93036AFB 25336.68116536  .00013750  00000+0  21421-2 0  9998", "line2": "2 34972  73.9881  69.5022 0034548 229.6952 259.9357 14.72575530875027"}}, "geometry": {"type": "Point", "coordinates": [-105.56353724591648, -20.87340708008958]}}, {"type": "Feature", "properties": {"norad_id": 34976, "name": "COSMOS 2251 DEB", "group": "cosmos-2251-debris", "lat": 6.987541294628989, "lon": 142.56342228789978, "alt_km": 674.3254748203371, "timestamp": "2025-12-03T08:58:46.398666+00:00", "meta": {"OBJECT_NAME": "COSMOS 2251 DEB", "OBJECT_ID": "1993-036AFF", "EPOCH": "2025-12-02T01:35:05.811072", "MEAN_MOTION": 14.76206846, "ECCENTRICITY": 0.00478033, "INCLINATION": 74.0574, "RA_OF_ASC_NODE": 327.1281, "ARG_OF_PERICENTER": 16.149, "MEAN_ANOMALY": 47.3762, "EPHEMERIS_TYPE": 0, "CLASSIFICATION_TYPE": "U", "NORAD_CAT_ID": 34976, "ELEMENT_SET_NO": 999, "REV_AT_EPOCH": 88116, "BSTAR": 0.0014415592, "MEAN_MOTION_DOT": 0.00010144, "MEAN_MOTION_DDOT": 0}, "tle": {"line1": "1 34976U 93036AFF 25336.06603948  .00010144  00000+0  14416-2 0  9992", "line2": "2 34976  74.0574 327.1281 0047803  16.1490  47.3762 14.76206846881162"}}, "geometry": {"type": "Point", "coordinates": [142.56342228789978, 6.987541294628989]}}, {"type": "Feature", "properties": {"norad_id": 34979, "name": "COSMOS 2251 DEB", "group": "cosmos-2251-debris", "lat": 49.9530685700032, "lon": 85.77720107028516, "alt_km": 645.4448931242814, "timestamp": "2025-12-03T08:58:46.398678+00:00", "meta": {"OBJECT_NAME": "COSMOS 2251 DEB", "OBJECT_ID": "1993-036AFJ", "EPOCH": "2025-12-02T22:40:08.008032", "MEAN_MOTION": 14.79015939, "ECCENTRICITY": 0.0049261, "INCLINATION": 74.0398, "RA_OF_ASC_NODE": 286.5287, "ARG_OF_PERICENTER": 6.5543, "MEAN_ANOMALY": 353.6266, "EPHEMERIS_TYPE": 0, "CLASSIFICATION_TYPE": "U", "NORAD_CAT_ID": 34979, "ELEMENT_SET_NO": 999, "REV_AT_EPOCH": 88075, "BSTAR": 0.0020317, "MEAN_MOTION_DOT": 0.00015327, "MEAN_MOTION_DDOT": 0}, "tle": {"line1": "1 34979U 93036AFJ 25336.94453713  .00015327  00000+0  20317-2 0  9990", "line2": "2 34979  74.0398 286.5287 0049261   6.5543 353.6266 14.79015939880755"}}, "geometry": {"type": "Point", "coordinates": [85.77720107028516, 49.9530685700032]}}, {"type": "Feature", "properties": {"norad_id": 34990, "name": "COSMOS 2251 DEB", "group": "cosmos-2251-debris", "lat": 30.57669196630744, "lon": -81.57068011055527, "alt_km": 743.091142764305, "timestamp": "2025-12-03T08:58:46.398689+00:00", "meta": {"OBJECT_NAME": "COSMOS 2251 DEB", "OBJECT_ID": "1993-036AFN", "EPOCH": "2025-11-30T02:35:36.793536", "MEAN_MOTION": 14.42317714, "ECCENTRICITY": 0.00161518, "INCLINATION": 74.0452, "RA_OF_ASC_NODE": 274.7497, "ARG_OF_PERICENTER": 338.715, "MEAN_ANOMALY": 21.3332, "EPHEMERIS_TYPE": 0, "CLASSIFICATION_TYPE": "U", "NORAD_CAT_ID": 34990, "ELEMENT_SET_NO": 999, "REV_AT_EPOCH": 87164, "BSTAR": 0.00051741405, "MEAN_MOTION_DOT": 1.685e-05, "MEAN_MOTION_DDOT": 0}, "tle": {"line1": "1 34990U 93036AFN 25334.10806474  .00001685  00000+0  51741-3 0  9993", "line2": "2 34990  74.0452 274.7497 0016151 338.7150  21.3332 14.42317714871644"}}, "geometry": {"type": "Point", "coordinates": [-81.57068011055527, 30.57669196630744]}}, {"type": "Feature", "properties": {"norad_id": 34997, "name": "COSMOS 2251 DEB", "group": "cosmos-2251-debris", "lat": 73.58851023074733, "lon": 69.75905434003644, "alt_km": 792.5070181657975, "timestamp": "2025-12-03T08:58:46.398699+00:00", "meta": {"OBJECT_NAME": "COSMOS 2251 DEB", "OBJECT_ID": "1993-036AFV", "EPOCH": "2025-11-29T18:09:59.976288", "MEAN_MOTION": 14.45289096, "ECCENTRICITY": 0.00981723, "INCLINATION": 73.8805, "RA_OF_ASC_NODE": 335.6343, "ARG_OF_PERICENTER": 312.7593, "MEAN_ANOMALY": 46.5333, "EPHEMERIS_TYPE": 0, "CLASSIFICATION_TYPE": "U", "NORAD_CAT_ID": 34997, "ELEMENT_SET_NO": 999, "REV_AT_EPOCH": 70559, "BSTAR": 0.0014679127, "MEAN_MOTION_DOT": 5.442e-05, "MEAN_MOTION_DDOT": 0}, "tle": {"line1": "1 34997U 93036AFV 25333.75694417  .00005442  00000+0  14679-2 0  9995", "line2": "2 34997  73.8805 335.6343 0098172 312.7593  46.5333 14.45289096705597"}}, "geometry": {"type": "Point", "coordinates": [69.75905434003644, 73.58851023074733]}}, {"type": "Feature", "properties": {"norad_id": 34998, "name": "COSMOS 2251 DEB", "group": "cosmos-2251-debris", "lat": -23.224075419063947, "lon": 4.64406130824662, "alt_km": 740.6965778853437, "timestamp": "2025-12-03T08:58:46.398710+00:00", "meta": {"OBJECT_NAME": "COSMOS 2251 DEB", "OBJECT_ID": "1993-036AFW", "EPOCH": "2025-12-03T00:27:28.459296", "MEAN_MOTION": 14.49214927, "ECCENTRICITY": 0.0020798, "INCLINATION": 74.0093, "RA_OF_ASC_NODE": 178.2428, "ARG_OF_PERICENTER": 324.9753, "MEAN_ANOMALY": 187.6358, "EPHEMERIS_TYPE": 0, "CLASSIFICATION_TYPE": "U", "NORAD_CAT_ID": 34998, "ELEMENT_SET_NO": 999, "REV_AT_EPOCH": 87279, "BSTAR": 0.00066768, "MEAN_MOTION_DOT": 2.523e-05, "MEAN_MOTION_DDOT": 0}, "tle": {"line1": "1 34998U 93036AFW 25337.01907939  .00002523  00000+0  66768-3 0  9999", "line2": "2 34998  74.0093 178.2428 0020798 324.9753 187.6358 14.49214927872793"}}, "geometry": {"type": "Point", "coordinates": [4.64406130824662, -23.224075419063947]}}, {"type": "Feature", "properties": {"norad_id": 35000, "name": "COSMOS 2251 DEB", "group": "cosmos-2251-debris", "lat": 66.12103642875826, "lon": -100.21267619944201, "alt_km": 361.81115882280665, "timestamp": "2025-12-03T08:58:46.398720+00:00", "meta": {"OBJECT_NAME": "COSMOS 2251 DEB", "OBJECT_ID": "1993-036AFY", "EPOCH": "2025-12-01T03:01:08.937696", "MEAN_MOTION": 15.64973748, "ECCENTRICITY": 0.00107373, "INCLINATION": 74.0059, "RA_OF_ASC_NODE": 224.4619, "ARG_OF_PERICENTER": 189.9912, "MEAN_ANOMALY": 170.1097, "EPHEMERIS_TYPE": 0, "CLASSIFICATION_TYPE": "U", "NORAD_CAT_ID": 35000, "ELEMENT_SET_NO": 999, "REV_AT_EPOCH": 88332, "BSTAR": 0.0058109544, "MEAN_MOTION_DOT": 0.00615456, "MEAN_MOTION_DDOT": 0}, "tle": {"line1": "1 35000U 93036AFY 25335.12579789  .00615456  00000+0  58110-2 0  9998", "line2": "2 35000  74.0059 224.4619 0010737 189.9912 170.1097 15.64973748883323"}}, "geometry": {"type": "Point", "coordinates": [-100.21267619944201, 66.12103642875826]}}, {"type": "Feature", "properties": {"norad_id": 35012, "name": "COSMOS 2251 DEB", "group": "cosmos-2251-debris", "lat": -53.534056088424656, "lon": 106.3998701498382, "alt_km": 697.5573952903051, "timestamp": "2025-12-03T08:58:46.398730+00:00", "meta": {"OBJECT_NAME": "COSMOS 2251 DEB", "OBJECT_ID": "1993-036AFZ", "EPOCH": "2025-11-29T10:33:51.837120", "MEAN_MOTION": 14.45521065, "ECCENTRICITY": 0.0081636, "INCLINATION": 74.0181, "RA_OF_ASC_NODE": 136.5568, "ARG_OF_PERICENTER": 279.5143, "MEAN_ANOMALY": 79.6796, "EPHEMERIS_TYPE": 0, "CLASSIFICATION_TYPE": "U", "NORAD_CAT_ID": 35012, "ELEMENT_SET_NO": 999, "REV_AT_EPOCH": 87369, "BSTAR": 0.00015191388, "MEAN_MOTION_DOT": 5.29e-06, "MEAN_MOTION_DDOT": 0}, "tle": {"line1": "1 35012U 93036AFZ 25333.44018330  .00000529  00000+0  15191-3 0  9996", "line2": "2 35012  74.0181 136.5568 0081636 279.5143  79.6796 14.45521065873693"}}, "geometry": {"type": "Point", "coordinates": [106.3998701498382, -53.534056088424656]}}, {"type": "Feature", "properties": {"norad_id": 35014, "name": "COSMOS 2251 DEB", "group": "cosmos-2251-debris", "lat": 42.14105442536876, "lon": -133.16372800935005, "alt_km": 642.5282211384765, "timestamp": "2025-12-03T08:58:46.398740+00:00", "meta": {"OBJECT_NAME": "COSMOS 2251 DEB", "OBJECT_ID": "1993-036AGB", "EPOCH": "2025-11-29T00:10:14.201184", "MEAN_MOTION": 14.74716562, "ECCENTRICITY": 0.00081798, "INCLINATION": 73.9988, "RA_OF_ASC_NODE": 70.4329, "ARG_OF_PERICENTER": 241.0886, "MEAN_ANOMALY": 118.9467, "EPHEMERIS_TYPE": 0, "CLASSIFICATION_TYPE": "U", "NORAD_CAT_ID": 35014, "ELEMENT_SET_NO": 999, "REV_AT_EPOCH": 71134, "BSTAR": 0.0017863262, "MEAN_MOTION_DOT": 0.00011934, "MEAN_MOTION_DDOT": 0}, "tle": {"line1": "1 35014U 93036AGB 25333.00710881  .00011934  00000+0  17863-2 0  9999", "line2": "2 35014  73.9988  70.4329 0008179 241.0886 118.9467 14.74716562711343"}}, "geometry": {"type": "Point", "coordinates": [-133.16372800935005, 42.14105442536876]}}, {"type": "Feature", "properties": {"norad_id": 35015, "name": "COSMOS 2251 DEB", "group": "cosmos-2251-debris", "lat": 32.406879984724554, "lon": -97.1497549830274, "alt_km": 733.3029666623224, "timestamp": "2025-12-03T08:58:46.398750+00:00", "meta": {"OBJECT_NAME": "COSMOS 2251 DEB", "OBJECT_ID": "1993-036AGC", "EPOCH": "2025-12-01T12:49:23.800800", "MEAN_MOTION": 14.46768601, "ECCENTRICITY": 0.00742089, "INCLINATION": 73.9481, "RA_OF_ASC_NODE": 255.7738, "ARG_OF_PERICENTER": 127.6207, "MEAN_ANOMALY": 48.46, "EPHEMERIS_TYPE": 0, "CLASSIFICATION_TYPE": "U", "NORAD_CAT_ID": 35015, "ELEMENT_SET_NO": 999, "REV_AT_EPOCH": 65278, "BSTAR": 0.00081419309, "MEAN_MOTION_DOT": 3.023e-05, "MEAN_MOTION_DDOT": 0}, "tle": {"line1": "1 35015U 93036AGC 25335.53430325  .00003023  00000+0  81419-3 0  9991", "line2": "2 35015  73.9481 255.7738 0074208 127.6207  48.4600 14.46768601652784"}}, "geometry": {"type": "Point", "coordinates": [-97.1497549830274, 32.406879984724554]}}]}